{
    "week": 289,
    "satellites": [
        {
            "Name": "BEIDOU-2 G6 (C02)",
            "Line1": "1 38953U 12059A   24296.87106566 -.00000183  00000+0  00000+0 0  9998",
            "Line2": "2 38953   2.8839  79.4360 0006323 296.1267  53.8817  1.00272236 43862",
            "SatelliteNumber": "38953",
            "Classification": "U",
            "LaunchYear": "12",
            "LaunchNumber": "059",
            "PieceOfLaunch": "A",
            "EpochYear": "24",
            "EpochDay": 296.87106566,
            "FirstDerivativeMeanMotion": -1.83e-06,
            "SecondDerivativeMeanMotion": "00000+0",
            "BSTAR": "00000+0",
            "SetNumber": "999",
            "Inclination": 2.8839,
            "RAAN": 79.436,
            "Eccentricity": 0.0006323,
            "ArgumentOfPerigee": 296.1267,
            "MeanAnomaly": 53.8817,
            "MeanMotion": 1.00272236,
            "RevolutionNumber": "4386"
        },
        {
            "Name": "BEIDOU-3S IGSO-1S (C31)",
            "Line1": "1 40549U 15019A   24296.49403341 -.00000176  00000+0  00000+0 0  9992",
            "Line2": "2 40549  50.3362 302.6804 0036246 198.2944 165.2498  1.00276724 35028",
            "SatelliteNumber": "40549",
            "Classification": "U",
            "LaunchYear": "15",
            "LaunchNumber": "019",
            "PieceOfLaunch": "A",
            "EpochYear": "24",
            "EpochDay": 296.49403341,
            "FirstDerivativeMeanMotion": -1.76e-06,
            "SecondDerivativeMeanMotion": "00000+0",
            "BSTAR": "00000+0",
            "SetNumber": "999",
            "Inclination": 50.3362,
            "RAAN": 302.6804,
            "Eccentricity": 0.0036246,
            "ArgumentOfPerigee": 198.2944,
            "MeanAnomaly": 165.2498,
            "MeanMotion": 1.00276724,
            "RevolutionNumber": "3502"
        },
        {
            "Name": "BEIDOU-3S M2S (C58)",
            "Line1": "1 40748U 15037A   24296.32103983 -.00000073  00000+0  00000+0 0  9990",
            "Line2": "2 40748  55.3825 322.7085 0013193 254.1892 105.7057  1.86229121 62890",
            "SatelliteNumber": "40748",
            "Classification": "U",
            "LaunchYear": "15",
            "LaunchNumber": "037",
            "PieceOfLaunch": "A",
            "EpochYear": "24",
            "EpochDay": 296.32103983,
            "FirstDerivativeMeanMotion": -7.3e-07,
            "SecondDerivativeMeanMotion": "00000+0",
            "BSTAR": "00000+0",
            "SetNumber": "999",
            "Inclination": 55.3825,
            "RAAN": 322.7085,
            "Eccentricity": 0.0013193,
            "ArgumentOfPerigee": 254.1892,
            "MeanAnomaly": 105.7057,
            "MeanMotion": 1.86229121,
            "RevolutionNumber": "6289"
        },
        {
            "Name": "BEIDOU-3S M1S (C57)",
            "Line1": "1 40749U 15037B   24294.44616058 -.00000073  00000+0  00000+0 0  9994",
            "Line2": "2 40749  55.3865 322.7590 0003709 314.8435  45.1702  1.86227490 62863",
            "SatelliteNumber": "40749",
            "Classification": "U",
            "LaunchYear": "15",
            "LaunchNumber": "037",
            "PieceOfLaunch": "B",
            "EpochYear": "24",
            "EpochDay": 294.44616058,
            "FirstDerivativeMeanMotion": -7.3e-07,
            "SecondDerivativeMeanMotion": "00000+0",
            "BSTAR": "00000+0",
            "SetNumber": "999",
            "Inclination": 55.3865,
            "RAAN": 322.759,
            "Eccentricity": 0.0003709,
            "ArgumentOfPerigee": 314.8435,
            "MeanAnomaly": 45.1702,
            "MeanMotion": 1.8622749,
            "RevolutionNumber": "6286"
        },
        {
            "Name": "BEIDOU-3S IGSO-2S (C56)",
            "Line1": "1 40938U 15053A   24296.85956109 -.00000141  00000+0  00000+0 0  9999",
            "Line2": "2 40938  50.1634 265.9084 0052707 189.8201 342.1479  1.00277086 33310",
            "SatelliteNumber": "40938",
            "Classification": "U",
            "LaunchYear": "15",
            "LaunchNumber": "053",
            "PieceOfLaunch": "A",
            "EpochYear": "24",
            "EpochDay": 296.85956109,
            "FirstDerivativeMeanMotion": -1.41e-06,
            "SecondDerivativeMeanMotion": "00000+0",
            "BSTAR": "00000+0",
            "SetNumber": "999",
            "Inclination": 50.1634,
            "RAAN": 265.9084,
            "Eccentricity": 0.0052707,
            "ArgumentOfPerigee": 189.8201,
            "MeanAnomaly": 342.1479,
            "MeanMotion": 1.00277086,
            "RevolutionNumber": "3331"
        },
        {
            "Name": "BEIDOU-2 IGSO-6 (C13)",
            "Line1": "1 41434U 16021A   24296.80892446 -.00000168  00000+0  00000+0 0  9994",
            "Line2": "2 41434  59.3726  44.0690 0054050 223.2855 150.8391  1.00289827 31440",
            "SatelliteNumber": "41434",
            "Classification": "U",
            "LaunchYear": "16",
            "LaunchNumber": "021",
            "PieceOfLaunch": "A",
            "EpochYear": "24",
            "EpochDay": 296.80892446,
            "FirstDerivativeMeanMotion": -1.68e-06,
            "SecondDerivativeMeanMotion": "00000+0",
            "BSTAR": "00000+0",
            "SetNumber": "999",
            "Inclination": 59.3726,
            "RAAN": 44.069,
            "Eccentricity": 0.005405,
            "ArgumentOfPerigee": 223.2855,
            "MeanAnomaly": 150.8391,
            "MeanMotion": 1.00289827,
            "RevolutionNumber": "3144"
        },
        {
            "Name": "BEIDOU-2 G7 (C03)",
            "Line1": "1 41586U 16037A   24296.86591404 -.00000361  00000+0  00000+0 0  9990",
            "Line2": "2 41586   1.6841  66.5392 0006558 346.4935  41.0432  1.00271130   857",
            "SatelliteNumber": "41586",
            "Classification": "U",
            "LaunchYear": "16",
            "LaunchNumber": "037",
            "PieceOfLaunch": "A",
            "EpochYear": "24",
            "EpochDay": 296.86591404,
            "FirstDerivativeMeanMotion": -3.61e-06,
            "SecondDerivativeMeanMotion": "00000+0",
            "BSTAR": "00000+0",
            "SetNumber": "999",
            "Inclination": 1.6841,
            "RAAN": 66.5392,
            "Eccentricity": 0.0006558,
            "ArgumentOfPerigee": 346.4935,
            "MeanAnomaly": 41.0432,
            "MeanMotion": 1.0027113,
            "RevolutionNumber": "85"
        },
        {
            "Name": "BEIDOU-3 M1 (C19)",
            "Line1": "1 43001U 17069A   24297.20721005  .00000006  00000+0  00000+0 0  9996",
            "Line2": "2 43001  56.1704  83.0003 0007216 303.4496  56.4737  1.86231286 47394",
            "SatelliteNumber": "43001",
            "Classification": "U",
            "LaunchYear": "17",
            "LaunchNumber": "069",
            "PieceOfLaunch": "A",
            "EpochYear": "24",
            "EpochDay": 297.20721005,
            "FirstDerivativeMeanMotion": 6e-08,
            "SecondDerivativeMeanMotion": "00000+0",
            "BSTAR": "00000+0",
            "SetNumber": "999",
            "Inclination": 56.1704,
            "RAAN": 83.0003,
            "Eccentricity": 0.0007216,
            "ArgumentOfPerigee": 303.4496,
            "MeanAnomaly": 56.4737,
            "MeanMotion": 1.86231286,
            "RevolutionNumber": "4739"
        },
        {
            "Name": "BEIDOU-3 M2 (C20)",
            "Line1": "1 43002U 17069B   24296.07082981 -.00000001  00000+0  00000+0 0  9990",
            "Line2": "2 43002  56.1682  83.0748 0005276 339.7085  20.2599  1.86230918 47369",
            "SatelliteNumber": "43002",
            "Classification": "U",
            "LaunchYear": "17",
            "LaunchNumber": "069",
            "PieceOfLaunch": "B",
            "EpochYear": "24",
            "EpochDay": 296.07082981,
            "FirstDerivativeMeanMotion": -1e-08,
            "SecondDerivativeMeanMotion": "00000+0",
            "BSTAR": "00000+0",
            "SetNumber": "999",
            "Inclination": 56.1682,
            "RAAN": 83.0748,
            "Eccentricity": 0.0005276,
            "ArgumentOfPerigee": 339.7085,
            "MeanAnomaly": 20.2599,
            "MeanMotion": 1.86230918,
            "RevolutionNumber": "4736"
        },
        {
            "Name": "BEIDOU-3 M7 (C27)",
            "Line1": "1 43107U 18003A   24296.35578031 -.00000075  00000+0  00000+0 0  9993",
            "Line2": "2 43107  54.8409 323.2423 0002201  76.6410 283.4243  1.86232416 46138",
            "SatelliteNumber": "43107",
            "Classification": "U",
            "LaunchYear": "18",
            "LaunchNumber": "003",
            "PieceOfLaunch": "A",
            "EpochYear": "24",
            "EpochDay": 296.35578031,
            "FirstDerivativeMeanMotion": -7.5e-07,
            "SecondDerivativeMeanMotion": "00000+0",
            "BSTAR": "00000+0",
            "SetNumber": "999",
            "Inclination": 54.8409,
            "RAAN": 323.2423,
            "Eccentricity": 0.0002201,
            "ArgumentOfPerigee": 76.641,
            "MeanAnomaly": 283.4243,
            "MeanMotion": 1.86232416,
            "RevolutionNumber": "4613"
        }
    ]
}